NORAD_CAT_ID,OBJECT_NAME,OBJECT_TYPE,EPOCH,MEAN_MOTION,ECCENTRICITY,INCLINATION,RA_OF_ASC_NODE,ARG_OF_PERICENTER,MEAN_ANOMALY,BSTAR,MEAN_MOTION_DOT,MEAN_MOTION_DDOT,TLE_LINE0,TLE_LINE1,TLE_LINE2,SEMIMAJOR_AXIS,PERIOD,APOGEE,PERIGEE,DECAYED
55743.0,STARLINK-5602,PAYLOAD,2023-08-11 08:35:45,14.98350453,0.0003017,69.9996,98.0596,265.8294,94.252,-0.00036256,-4.419e-05,0.0,0 STARLINK-5602,1 55743U 23028C   23223.35816940 -.00004419  00000-0 -36256-3 0  9992,2 55743  69.9996  98.0596 0003017 265.8294  94.2520 14.98350453 25032,6950.13,96.106,574.091,569.898,0.0
55743.0,STARLINK-5602,PAYLOAD,2023-08-11 18:12:34,14.98329151,0.0002942,69.9997,97.0496,265.5473,94.5349,6.7299e-06,-1.3e-07,0.0,0 STARLINK-5602,1 55743U 23028C   23223.75873392 -.00000013  00000-0  67299-5 0  9998,2 55743  69.9997  97.0496 0002942 265.5473  94.5349 14.98329151 25092,6950.196,96.107,574.105,570.016,0.0
55743.0,STARLINK-5602,PAYLOAD,2023-08-12 21:26:51,14.98329451,0.000308,69.9998,94.1879,266.5557,93.525,-2.3718e-05,-3.76e-06,0.0,0 STARLINK-5602,1 55743U 23028C   23224.89365422 -.00000376  00000-0 -23718-4 0  9994,2 55743  69.9998  94.1879 0003080 266.5557  93.5250 14.98329451 25266,6950.195,96.107,574.2,569.919,0.0
55743.0,STARLINK-5602,PAYLOAD,2023-08-14 00:41:08,14.98332792,0.0003172,69.9997,91.3264,269.634,90.4455,2.3986e-05,1.93e-06,0.0,0 STARLINK-5602,1 55743U 23028C   23226.02857036  .00000193  00000-0  23986-4 0  9990,2 55743  69.9997  91.3264 0003172 269.6340  90.4455 14.98332792 25432,6950.184,96.107,574.254,569.845,0.0
55743.0,STARLINK-5602,PAYLOAD,2023-08-15 00:43:09,14.9833039,0.0003209,69.9995,88.8018,270.4939,89.5852,4.2772e-06,-4.2e-07,0.0,0 STARLINK-5602,1 55743U 23028C   23227.02997145 -.00000042  00000-0  42772-5 0  9996,2 55743  69.9995  88.8018 0003209 270.4939  89.5852 14.98330390 25581,6950.192,96.107,574.287,569.826,0.0
55743.0,STARLINK-5602,PAYLOAD,2023-08-16 00:45:10,14.98333315,0.0003195,69.9996,86.2765,270.2274,89.8519,2.3857e-05,1.92e-06,0.0,0 STARLINK-5602,1 55743U 23028C   23228.03136762  .00000192  00000-0  23857-4 0  9995,2 55743  69.9996  86.2765 0003195 270.2274  89.8519 14.98333315 25737,6950.183,96.107,574.268,569.827,0.0
55743.0,STARLINK-5602,PAYLOAD,2023-08-17 13:36:15,14.98331139,0.0003183,69.9993,82.4053,270.2959,89.7835,2.3091e-08,-9.3e-07,0.0,0 STARLINK-5602,1 55743U 23028C   23229.56684694 -.00000093  00000-0  23091-7 0  9990,2 55743  69.9993  82.4053 0003183 270.2959  89.7835 14.98331139 25966,6950.189,96.107,574.267,569.842,0.0
55743.0,STARLINK-5602,PAYLOAD,2023-08-18 13:38:16,14.9832764,0.0002795,70.0019,79.8812,268.645,91.4389,-1.2136e-05,-2.38e-06,0.0,0 STARLINK-5602,1 55743U 23028C   23230.56824893 -.00000238  00000-0 -12136-4 0  9996,2 55743  70.0019  79.8812 0002795 268.6450  91.4389 14.98327640 26110,6950.2,96.107,574.008,570.123,0.0
55743.0,STARLINK-5602,PAYLOAD,2023-08-19 23:17:06,14.98326163,0.0002895,70.0008,76.3459,268.9856,91.0972,-1.1924e-06,-1.07e-06,0.0,0 STARLINK-5602,1 55743U 23028C   23231.97021165 -.00000107  00000-0 -11924-5 0  9993,2 55743  70.0008  76.3459 0002895 268.9856  91.0972 14.98326163 26327,6950.205,96.107,574.082,570.058,0.0
55743.0,STARLINK-5602,PAYLOAD,2023-08-20 23:19:06,14.98333503,0.0002847,69.9995,73.8199,274.1775,85.9059,9.0262e-05,9.84e-06,0.0,0 STARLINK-5602,1 55743U 23028C   23232.97160545  .00000984  00000-0  90262-4 0  9992,2 55743  69.9995  73.8199 0002847 274.1775  85.9059 14.98333503 26478,6950.182,96.107,574.026,570.068,0.0
55743.0,STARLINK-5602,PAYLOAD,2023-08-21 07:19:47,14.98328738,0.0003062,70.0001,72.9785,269.2631,90.8177,2.7422e-05,2.34e-06,0.0,0 STARLINK-5602,1 55743U 23028C   23233.30540894  .00000234  00000-0  27422-4 0  9995,2 55743  70.0001  72.9785 0003062 269.2631  90.8177 14.98328738 26522,6950.197,96.107,574.19,569.934,0.0
55743.0,STARLINK-5602,PAYLOAD,2023-08-22 23:23:08,14.98334905,0.0003094,70.0001,68.7704,270.1381,89.9424,1.7119e-05,1.11e-06,0.0,0 STARLINK-5602,1 55743U 23028C   23234.97440357  .00000111  00000-0  17119-4 0  9998,2 55743  70.0001  68.7704 0003094 270.1381  89.9424 14.98334905 26778,6950.178,96.107,574.193,569.892,0.0
55743.0,STARLINK-5602,PAYLOAD,2023-08-23 12:12:13,14.98327621,0.0003117,70.0,67.4239,269.9181,90.1621,-2.1272e-05,-3.47e-06,0.0,0 STARLINK-5602,1 55743U 23028C   23235.50848856 -.00000347  00000-0 -21272-4 0  9992,2 55743  70.0000  67.4239 0003117 269.9181  90.1621 14.98327621 26855,6950.2,96.107,574.232,569.899,0.0
55743.0,STARLINK-5602,PAYLOAD,2023-08-23 23:25:09,14.98328834,0.0003119,70.0,66.2454,268.7541,91.326,-7.0466e-06,-1.77e-06,0.0,0 STARLINK-5602,1 55743U 23028C   23235.97580760 -.00000177  00000-0 -70466-5 0  9991,2 55743  70.0000  66.2454 0003119 268.7541  91.3260 14.98328834 26927,6950.196,96.107,574.229,569.894,0.0
55743.0,STARLINK-5602,PAYLOAD,2023-08-25 13:52:23,14.98330104,0.0003179,70.0001,62.2047,269.4898,90.5896,3.1836e-05,2.87e-06,0.0,0 STARLINK-5602,1 55743U 23028C   23237.57804487  .00000287  00000-0  31836-4 0  9991,2 55743  70.0001  62.2047 0003179 269.4898  90.5896 14.98330104 27167,6950.193,96.107,574.267,569.848,0.0
55743.0,STARLINK-5602,PAYLOAD,2023-08-25 18:40:47,14.98329466,0.0003223,70.0,61.6997,269.8343,90.2447,2.1737e-05,1.66e-06,0.0,0 STARLINK-5602,1 55743U 23028C   23237.77832549  .00000166  00000-0  21737-4 0  9998,2 55743  70.0000  61.6997 0003223 269.8343  90.2447 14.98329466 27193,6950.195,96.107,574.3,569.819,0.0
55743.0,STARLINK-5602,PAYLOAD,2023-08-25 20:16:55,14.983299,0.0003206,70.0,61.5314,269.574,90.5052,2.6878e-05,2.28e-06,0.0,0 STARLINK-5602,1 55743U 23028C   23237.84508507  .00000228  00000-0  26878-4 0  9990,2 55743  70.0000  61.5314 0003206 269.5740  90.5052 14.98329900 27204,6950.193,96.107,574.286,569.83,0.0
55743.0,STARLINK-5602,PAYLOAD,2023-08-26 12:18:16,14.98328343,0.0003151,69.9999,59.8489,269.2693,90.8105,-7.0051e-06,-1.77e-06,0.0,0 STARLINK-5602,1 55743U 23028C   23238.51268685 -.00000177  00000-0 -70051-5 0  9993,2 55743  69.9999  59.8489 0003151 269.2693  90.8105 14.98328343 27307,6950.198,96.107,574.253,569.873,0.0
55743.0,STARLINK-5602,PAYLOAD,2023-08-26 20:18:56,14.98328059,0.0003152,69.9999,59.0073,269.2549,90.8248,-8.2229e-06,-1.91e-06,0.0,0 STARLINK-5602,1 55743U 23028C   23238.84648730 -.00000191  00000-0 -82229-5 0  9998,2 55743  69.9999  59.0073 0003152 269.2549  90.8248 14.98328059 27356,6950.199,96.107,574.255,569.873,0.0
55743.0,STARLINK-5602,PAYLOAD,2023-08-26 21:55:04,14.98326395,0.0003074,70.0,58.8387,269.032,91.0487,-4.5269e-05,-6.33e-06,0.0,0 STARLINK-5602,1 55743U 23028C   23238.91325007 -.00000633  00000-0 -45269-4 0  9998,2 55743  70.0000  58.8387 0003074 269.0320  91.0487 14.98326395 27365,6950.204,96.107,574.206,569.933,0.0
55743.0,STARLINK-5602,PAYLOAD,2023-08-27 17:08:42,14.98319766,0.0003097,70.0003,56.8186,268.9872,91.0933,-7.6042e-05,-1e-05,0.0,0 STARLINK-5602,1 55743U 23028C   23239.71437873 -.00001000  00000-0 -76042-4 0  9994,2 55743  70.0003  56.8186 0003097 268.9872  91.0933 14.98319766 27481,6950.225,96.108,574.242,569.937,0.0
55743.0,STARLINK-5602,PAYLOAD,2023-08-27 20:20:58,14.98320942,0.0003081,70.0003,56.4822,269.0056,91.075,-5.8421e-05,-7.9e-06,0.0,0 STARLINK-5602,1 55743U 23028C   23239.84789832 -.00000790  00000-0 -58421-4 0  9999,2 55743  70.0003  56.4822 0003081 269.0056  91.0750 14.98320942 27501,6950.221,96.108,574.227,569.945,0.0
55743.0,STARLINK-5602,PAYLOAD,2023-08-28 15:34:34,14.98325989,0.0003105,70.0005,54.4617,273.7774,86.303,3.9843e-05,3.82e-06,0.0,0 STARLINK-5602,1 55743U 23028C   23240.64901559  .00000382  00000-0  39843-4 0  9993,2 55743  70.0005  54.4617 0003105 273.7774  86.3030 14.98325989 27626,6950.205,96.107,574.228,569.912,0.0
55743.0,STARLINK-5602,PAYLOAD,2023-08-28 20:22:59,14.98326716,0.0003103,70.0003,53.9569,269.0144,91.0659,7.757e-05,8.33e-06,0.0,0 STARLINK-5602,1 55743U 23028C   23240.84929434  .00000833  00000-0  77570-4 0  9997,2 55743  70.0003  53.9569 0003103 269.0144  91.0659 14.98326716 27653,6950.203,96.107,574.225,569.911,0.0
55743.0,STARLINK-5602,PAYLOAD,2023-08-29 17:12:43,14.98334442,0.0003307,70.0003,51.769,270.402,89.676,0.00015443,1.75e-05,0.0,0 STARLINK-5602,1 55743U 23028C   23241.71716730  .00001750  00000-0  15443-3 0  9996,2 55743  70.0003  51.7690 0003307 270.4020  89.6760 14.98334442 27784,6950.179,96.107,574.343,569.746,0.0
55743.0,STARLINK-5602,PAYLOAD,2023-08-29 20:24:59,14.98336248,0.0003292,70.0004,51.4324,270.4266,89.6516,0.00016837,1.917e-05,0.0,0 STARLINK-5602,1 55743U 23028C   23241.85068531  .00001917  00000-0  16837-3 0  9993,2 55743  70.0004  51.4324 0003292 270.4266  89.6516 14.98336248 27809,6950.174,96.107,574.327,569.751,0.0
55743.0,STARLINK-5602,PAYLOAD,2023-08-30 17:14:43,14.98337691,0.0003215,70.0015,49.2475,273.2861,86.7931,5.8308e-05,6.03e-06,0.0,0 STARLINK-5602,1 55743U 23028C   23242.71856423  .00000603  00000-0  58308-4 0  9995,2 55743  70.0015  49.2475 0003215 273.2861  86.7931 14.98337691 27936,6950.169,96.107,574.269,569.8,0.0
55743.0,STARLINK-5602,PAYLOAD,2023-08-30 22:03:08,14.98337086,0.0003271,70.0005,48.7397,271.1218,88.9566,4.5699e-05,4.52e-06,0.0,0 STARLINK-5602,1 55743U 23028C   23242.91884337  .00000452  00000-0  45699-4 0  9993,2 55743  70.0005  48.7397 0003271 271.1218  88.9566 14.98337086 27966,6950.171,96.107,574.309,569.763,0.0
55743.0,STARLINK-5602,PAYLOAD,2023-08-31 20:29:01,14.98334264,0.0002841,70.0026,46.3863,269.2123,90.871,-5.0266e-05,-6.93e-06,0.0,0 STARLINK-5602,1 55743U 23028C   23243.85348466 -.00000693  00000-0 -50266-4 0  9990,2 55743  70.0026  46.3863 0002841 269.2123  90.8710 14.98334264 28101,6950.18,96.107,574.019,570.07,0.0
55743.0,STARLINK-5602,PAYLOAD,2023-09-01 04:29:45,14.98274338,0.0003277,70.0023,45.5466,268.8444,91.2339,-0.00051852,-6.266e-05,0.0,0 STARLINK-5602,1 55743U 23028C   23244.18732937 -.00006266  00000-0 -51852-3 0  9990,2 55743  70.0023  45.5466 0003277 268.8444  91.2339 14.98274338 28155,6950.365,96.111,574.508,569.952,0.0
